ECHOSTAR 6              
1 26402U 00038A   16256.13799296 -.00000159  00000-0  00000+0 0  9996
2 26402   3.6544  68.5505 0003085 110.8426 125.6536  1.00271827 59162
INTELSAT 9 (IS-9)       
1 26451U 00043A   16257.29132578 -.00000284  00000-0  00000+0 0  9997
2 26451   2.9874  72.6844 0002668 114.0049 227.8022  1.00270067 59103
BRASILSAT B4            
1 26469U 00046A   16256.49953892 -.00000225  00000-0  00000+0 0  9995
2 26469   1.0790  86.6400 0002564  78.8017 282.3096  1.00269036 58895
NILESAT 102             
1 26470U 00046B   16256.27768705 -.00000072  00000-0  00000+0 0  9990
2 26470   1.0993  84.7503 0004771  98.5006 261.3977  1.00272776 58894
ASTRA 2B                
1 26494U 00054A   16257.15610116  .00000137  00000-0  00000+0 0  9996
2 26494   1.6415  79.8377 0004613  51.0619 316.8568  1.00272867 58509
AMC-7 (GE-7)            
1 26495U 00054B   16256.39774271  .00000074  00000-0  00000+0 0  9995
2 26495   0.0199  85.0699 0001472 130.3853 144.5487  1.00271677 58514
NSS-11 (AAP-1)          
1 26554U 00059A   16256.82385237 -.00000359  00000-0  00000+0 0  9991
2 26554   0.0450 301.4287 0002467 200.0651 255.5481  1.00270159 58436
N-SAT-110 (JCSAT-110)   
1 26559U 00060A   16257.01322627 -.00000366  00000-0  00000+0 0  9992
2 26559   0.0352 268.4074 0000460 158.3847  40.4877  1.00270891 58377
AMC-6 (GE-6)            
1 26580U 00067A   16257.39256271 -.00000275  00000-0  00000+0 0  9994
2 26580   0.0432 323.2339 0003043 200.1472 258.7647  1.00271514 58253
INTELSAT 12 (IS-12)     
1 26590U 00068A   16257.08974696  .00000122  00000-0  00000+0 0  9990
2 26590   0.0168 215.1553 0002805 340.6837 233.9689  1.00273008 58067
INTELSAT 1R (IS-1R)     
1 26608U 00072A   16256.41399602 -.00000297  00000-0  00000+0 0  9993
2 26608   0.0538 305.7085 0000629 358.7327 146.3471  1.00273297 57919
ANIK F1                 
1 26624U 00076A   16256.32104612 -.00000088  00000-0  00000-0 0  9999
2 26624   0.0218 138.7313 0003099  19.0333 202.2624  1.00272247  7380
ASTRA 2D                
1 26638U 00081A   16256.06376285  .00000054  00000-0  00000-0 0  9990
2 26638   3.1091  71.2858 0001850  97.9697 262.4604  1.00274950 17160
AMC-8 (GE-8)            
1 26639U 00081B   16256.46159253  .00000090  00000-0  00000+0 0  9998
2 26639   0.0332 291.9185 0002383 245.1013 202.0385  1.00273088 57532
TURKSAT 2A              
1 26666U 01002A   16256.90501048  .00000131  00000-0  00000-0 0  9991
2 26666   0.5728  84.8743 0003370  85.4429 189.7040  1.00276125 57273
SKYNET 4F               
1 26695U 01005B   16257.29154685 -.00000254  00000-0  00000+0 0  9996
2 26695   8.5665  38.6341 0002679 143.1703 241.8948  1.00269223 57146
EUTELSAT 33C            
1 26719U 01011A   16257.03199560  .00000141  00000-0  00000+0 0  9997
2 26719   0.0646 351.0249 0003040 195.5081 210.5186  1.00271933 56845
INTELSAT 10 (IS-10)     
1 26766U 01019A   16257.15075932  .00000112  00000-0  00000+0 0  9994
2 26766   0.9358  86.4422 0001744 102.1535 265.7711  1.00269932 56195
INTELSAT 901 (IS-901)   
1 26824U 01024A   16257.11245123 -.00000156  00000-0  00000+0 0  9991
2 26824   0.0539 290.6547 0002880 233.7472 210.6228  1.00271507 55868
ASTRA 2C                
1 26853U 01025A   16257.02757593  .00000031  00000-0  00000+0 0  9994
2 26853   0.0914 293.5605 0003373 235.1853 253.9356  1.00272862 55846
ARTEMIS                 
1 26863U 01029A   16256.83811550 -.00000261  00000-0  00000-0 0  9998
2 26863  12.4273  35.9956 0004595 152.5267 193.3005  1.00442903  8400
INTELSAT 902 (IS-902)   
1 26900U 01039A   16257.02757593  .00000018  00000-0  00000+0 0  9997
2 26900   0.0203 117.1763 0003141  69.5478 237.6406  1.00272421 55038
EUTELSAT 8 WEST A       
1 26927U 01042A   16257.10762414 -.00000115  00000-0  00000+0 0  9996
2 26927   0.0654 348.4841 0004787 187.4850 202.8368  1.00271929 54799
DIRECTV 4S              
1 26985U 01052A   16256.85129263 -.00000128  00000-0  00000-0 0  9996
2 26985   0.0272 252.5479 0002173 275.6170  29.4082  1.00273378 15594
INSAT-3C                
1 27298U 02002A   16256.72502036 -.00000092  00000-0  00000-0 0  9999
2 27298   0.0383 101.9382 0003758  43.1885 182.0117  1.00272112 53666
ECHOSTAR 7              
1 27378U 02006A   16257.37394023 -.00000016  00000-0  00000+0 0  9994
2 27378   0.0251 278.7743 0001773 298.1382 151.7168  1.00274184 53336
INTELSAT 904 (IS-904)   
1 27380U 02007A   16257.02757593  .00000034  00000-0  00000+0 0  9994
2 27380   0.0347 294.6864 0003289 239.3108 248.3811  1.00272202 53352
TDRS 9                  
1 27389U 02011A   16256.86390375 -.00000111  00000-0  00000-0 0  9998
2 27389   4.6773  82.7970 0015481 222.9334 345.4643  1.00272827 54709
JCSAT-2A                
1 27399U 02015A   16257.52194537 -.00000180  00000-0  00000+0 0  9994
2 27399   0.0249 109.5958 0002253 116.8274 108.4134  1.00272393 52886
ASTRA 3A                
1 27400U 02015B   16257.45677157 -.00000212  00000-0  00000+0 0  9999
2 27400   3.2804  70.0390 0001888  98.8210 261.6187  1.00272977 52984
INTELSAT 903 (IS-903)   
1 27403U 02016A   16257.29153921 -.00000253  00000-0  00000+0 0  9998
2 27403   0.0131 131.7917 0003075  50.5255 240.8384  1.00271607 52919
NSS-7                   
1 27414U 02019A   16256.31585965 -.00000169  00000-0  00000+0 0  9998
2 27414   1.3171  84.5385 0002450  89.4704 271.4574  1.00271962 52813
DIRECTV 5 (TEMPO 1)     
1 27426U 02023A   16256.32878822 -.00000070  00000-0  00000+0 0  9995
2 27426   0.0104 215.5541 0003352 322.5092 181.9516  1.00272810 52567
INTELSAT 905 (IS-905)   
1 27438U 02027A   16256.29221421 -.00000198  00000-0  00000+0 0  9996
2 27438   0.0052 190.5726 0002716 321.1364 280.7094  1.00272772 52217
EXPRESS-A4              
1 27441U 02029A   16257.40781556 -.00000255  00000-0  00000+0 0  9990
2 27441   5.5860  58.3242 0003725  97.6090 129.0578  1.00274322 52231
GALAXY 3C (G-3C)        
1 27445U 02030A   16256.28713452 -.00000165  00000-0  00000+0 0  9991
2 27445   0.0210 158.8728 0002252 297.2279 263.9250  1.00268535 52212
EUTELSAT 5 WEST A       
1 27460U 02035A   16256.03765102 -.00000056  00000-0  00000+0 0  9994
2 27460   0.0500   3.9672 0005008 171.0418 185.0095  1.00272658 52004
N-STAR C                
1 27461U 02035B   16257.43058530 -.00000322  00000-0  00000+0 0  9996
2 27461   4.1137  66.3817 0003010  62.0334 155.4254  1.00269384 51927
ECHOSTAR 8              
1 27501U 02039A   16257.29043390 -.00000257  00000-0  00000+0 0  9994
2 27501   0.5072  89.6250 0003260  88.9536 201.7960  1.00271039 51544
EUTELSAT 12 WEST A      
1 27508U 02040A   16256.12327602 -.00000258  00000-0  00000+0 0  9996
2 27508   0.0766  26.6984 0002077 191.3208 141.9797  1.00272248 51503
METEOSAT-8 (MSG-1)      
1 27509U 02040B   16257.08770846  .00000133  00000-0  00000+0 0  9996
2 27509   4.3542  59.3838 0001489 173.9432 187.8794  1.00419509 51515
INTELSAT 906 (IS-906)   
1 27513U 02041A   16256.98174490 -.00000000  00000-0  00000+0 0  9997
2 27513   0.0268 250.8213 0002746 294.0774 225.0741  1.00272626 51237
KODAMA (DRTS)           
1 27516U 02042B   16256.83595078 -.00000250  00000-0  00000+0 0  9991
2 27516   4.5367  63.6624 0002396 115.1036 205.1815  1.00270061 51311
KALPANA-1 (METSAT 1)    
1 27525U 02043A   16254.98035097 -.00000090  00000-0  00000-0 0  9999
2 27525   5.8776  57.0918 0013805 215.7958 144.3099  1.00263257 51305
HISPASAT 1D             
1 27528U 02044A   16257.29244586 -.00000231  00000-0  00000+0 0  9991
2 27528   0.0503 323.8208 0002735 220.9719 243.2131  1.00272848 51214
TDRS 10                 
1 27566U 02055A   16256.67282705  .00000069  00000-0  00000-0 0  9990
2 27566   4.5484  59.6337 0007807 194.1366 166.1222  1.00273229 50492
NSS-6                   
1 27603U 02057A   16256.66547244 -.00000284  00000-0  00000-0 0  9995
2 27603   0.0234 158.7484 0002189  32.4875 135.4294  1.00269688 50356
NIMIQ 2                 
1 27632U 02062A   16255.19457854  .00000124  00000-0  00000-0 0  9999
2 27632   1.4057  83.6167 0002970  29.2523 331.5689  1.00272957  8456
INTELSAT 907 (IS-907)   
1 27683U 03007A   16257.09720914 -.00000217  00000-0  00000+0 0  9999
2 27683   0.0140 159.1607 0002938  10.1291 190.7305  1.00271380 49659
INSAT-3A                
1 27714U 03013A   16257.45484881 -.00000273  00000-0  00000+0 0  9993
2 27714   0.0294 248.3733 0005740 236.0297 125.7257  1.00272432 49219
GALAXY 12 (G-12)        
1 27715U 03013B   16256.42874162  .00000044  00000-0  00000+0 0  9990
2 27715   0.0317 244.8476 0002761 300.9986 191.3657  1.00273695 49267
ASIASAT 4               
1 27718U 03014A   16256.97733678 -.00000375  00000-0  00000-0 0  9999
2 27718   0.0150 234.2928 0001389 211.4309  20.6737  1.00274426 49187
HELLAS-SAT 2            
1 27811U 03020A   16257.15610116  .00000137  00000-0  00000+0 0  9996
2 27811   0.0226 163.4249 0004428   2.4643 281.8550  1.00270113 48609
AMC-9 (GE-12)           
1 27820U 03024A   16257.30611220 -.00000231  00000-0  00000+0 0  9990
2 27820   0.0505 299.6124 0003228 225.1960 215.1322  1.00271987 48603
THURAYA-2               
1 27825U 03026A   16256.97351119  .00000121  00000-0  00000+0 0  9994
2 27825   4.6747  27.9459 0004827 137.7754 221.1519  1.00274459 48606
OPTUS C1                
1 27831U 03028B   16256.88128826 -.00000162  00000-0  00000+0 0  9996
2 27831   0.0254 150.8669 0004541  21.0729 293.6508  1.00271768 48584
ECHOSTAR 12 (RAINBOW 1) 
1 27852U 03033A   16257.49705993 -.00000298  00000-0  00000+0 0  9999
2 27852   0.0375 295.0873 0001579 223.2738 312.3213  1.00272733 48253
GALAXY 23 (G-23)        
1 27854U 03034A   16257.37387925 -.00000002  00000-0  00000+0 0  9993
2 27854   0.0092  83.6571 0003519 116.3338 166.4190  1.00272655 52813
EUTELSAT 33A            
1 27948U 03043A   16257.02626640  .00000139  00000-0  00000+0 0  9999
2 27948   1.8109  79.4028 0000994 220.2050  93.1650  1.00271015 47589
